1 24978U 94029ACL 25100.03702345  .03510317  16487-1  66696-2 0  9998
2 24978  81.4001 319.2285 0028109 262.7507  97.0573 16.02876605492462
1 26275U 99057FM  25098.12622297  .05582464  78299-1  88629-2 0  9992
2 26275  98.0579 167.4521 0017359 272.5979  87.3315 16.08987058332562
1 30039U 99025NQ  25101.48948111  .07360080  12448+0  19091-1 0  9998
2 30039  96.9364  86.9509 0021892 156.9758 203.2508 16.00930560959850
1 31626U 99025CAG 25098.29742976  .06877263  11380+0  29609-1 0  9991
2 31626 101.2266 302.9367 0014018 305.7772  54.2185 15.92893554605202
1 31802U 99025CGQ 25098.19348600  .01149601  59805-3  33839-2 0  9994
2 31802  98.1823 265.0998 0028883 253.1094 106.7010 15.92013492638658
1 33668U 99025DFD 25098.10181566  .02484413  69502-2  31402-2 0  9995
2 33668  98.9606 157.1914 0025095 235.8340 124.0559 16.08542660923930
1 33759U 93036G   25100.51552538  .18632758  19201-5  86291-2 0  9996
2 33759  73.9578 108.7792 0012003 246.6229 113.3759 16.21465048854394
1 33930U 93036EK  25098.33213588  .08449449  18067+0  20208-1 0  9992
2 33930  73.9763 192.3262 0022800 316.6873  43.2574 16.02587727851695
1 35893U 93036AUG 25101.27109527  .00765607  00000-0  16848-1 0  9990
2 35893  73.6193 293.3282 0023455 188.4711 171.6103 15.41136169623835
1 43031U 17075D   25100.83766446  .08225284  19611-5  17469-3 0  9997
2 43031  35.2081 350.1144 0024847  18.4172  63.3675 16.44204372410747
1 43884U 18111J   25100.62951284  .20655006  30031-5  44424-3 0  9991
2 43884  97.5720  32.5123 0005642 160.8574 199.2941 16.46601126343630
1 45232U 20012BG  25100.73220466  .19944511  12544-4  38649-3 0  9996
2 45232  53.0145 312.5618 0005780 262.6301 144.6566 16.46950264285798
1 45690U 20035AK  25098.01517462  .15901479  12461-4  45382-3 0  9993
2 45690  53.0236  70.0219 0008727 257.0738 223.1556 16.44721945268520
1 48036U 21024BM  25099.79308686  .20685346  12505-4  52837-3 0  9991
2 48036  53.0271 335.5745 0007985 267.6910 136.9803 16.45339422224549
1 49149U 21082V   25100.85341221  .11614728  44404-5  28467-3 0  9995
2 49149  69.9857  29.7419 0010188 247.7807 197.2384 16.45312138197902
1 53222U 22084AK  25101.59953059  .24233195  24446-5  10000-3 0  9992
2 53222  97.6225 170.0802 0037034 234.6705 267.7981 16.54933179150249
1 55409U 23014U   25101.52286463  .10426489  44261-5  30314-3 0  9998
2 55409  69.9897 167.8033 0010964 259.1911 231.2457 16.44347078121708
1 55578U 23020K   25098.17935990  .86439731  94345-5  12758-2 0  9990
2 55578  42.9688 356.5512 0008029 231.9177 259.3951 16.48198943118800
1 56473U 23064AB  25098.24290624  .15173568  44429-5  31710-3 0  9992
2 56473  69.9857 234.5983 0009321 285.6090 145.5364 16.46254669106228
1 56815U 23078BA  25099.91576081  .09945753  44377-5  23520-3 0  9994
2 56815  69.9897  90.5630 0008813 277.2100 130.8923 16.45659849103329
1 56937U 23084F   25099.34660221  .07763351  25571-5  18278-2 0  9991
2 56937  97.5157 237.0989 0012765 277.1321  82.8521 16.29514234101968
1 58954U 21102N   25101.07463122  .11585597  24728-5  20747-2 0  9992
2 58954  97.3410 156.7531 0013213 259.7581 100.2225 16.32362654 71583
1 59145U 24043AZ  25099.53343022  .07666611  25414-5  15979-2 0  9991
2 59145  97.4738 238.8162 0014277 274.5372  85.4291 16.30743853 61562
1 61301U 24140TN  25100.63277500  .06991354  96824-1  29331-1 0  9996
2 61301  89.2560 329.5577 0018690 208.2647 151.7626 15.92085286 33587
1 61343U 24140VG  25098.53076782  .06112098  71187-1  28826-1 0  9999
2 61343  89.2588 329.9802 0019884 207.7378 152.2846 15.89684865 33044
1 61820U 24140ACL 25098.11056480  .00885995  00000-0  24064-1 0  9998
2 61820  89.2943 330.2957 0042195 208.0106 151.8877 15.34238082 32100
1 63206U 25050B   25099.01834074  .06663047  83338-5  18281-2 0  9995
2 63206  42.0012 313.1202 0052173  87.6824  29.0083 16.23025334  3940
1 63521U 25072B   25099.97072997  .11558378  12466-4  66070-3 0  9991
2 63521  51.6521 283.9113 0007095  81.8811  43.3667 16.41802781   281
1 63522U 25072C   25098.80765435  .08929461  11999-4  31616-2 0  9997
2 63522  51.6448 290.3777 0056083  77.6310  25.1594 16.19975563    63
1 85433U          25099.43002154  .00090989  00000-0  94433-3 0  9998
2 85433  41.4609  79.0813 0007682 201.3775 298.0140 15.63559069   233
