OBJECT_NAME,NORAD_CAT_ID,EPOCH,MEAN_MOTION,ECCENTRICITY,INCLINATION,RA_OF_ASC_NODE,ARG_OF_PERICENTER,MEAN_ANOMALY,BSTAR,SEMIMAJOR_AXIS,PERIOD,APOAPSIS,PERIAPSIS
STARLINK-1414,45690,2025-04-08 00:21:51.087168,16.44721945,0.0008727,53.0236,70.0219,257.0738,223.1556,0.00045382,6531.409,87.553,158.974,147.574
FENGYUN 1C DEB,33668,2025-04-08 02:26:36.873024,16.0854266,0.0025095,98.9606,157.1914,235.834,124.0559,0.0031402,6628.981,89.522,267.482,234.211
CZ-6A DEB,61820,2025-04-08 02:39:12.798720,15.34238082,0.0042195,89.2943,330.2957,208.0106,151.8877,0.024064,6841.322,93.858,492.053,434.32
CZ-4 DEB,26275,2025-04-08 03:01:45.664608,16.08987058,0.0017359,98.0579,167.4521,272.5979,87.3315,0.0088629,6627.761,89.497,261.131,238.12
STARLINK-5713,55578,2025-04-08 04:18:16.695360,16.48198943,0.0008029,42.9688,356.5512,231.9177,259.3951,0.0012758,6522.22,87.368,149.321,138.848
FENGYUN 1C DEB,31802,2025-04-08 04:38:37.190400,15.92013492,0.0028883,98.1823,265.0998,253.1094,106.701,0.0033839,6674.786,90.451,315.93,277.372
STARLINK-5486,56473,2025-04-08 05:49:47.099136,16.46254669,0.0009321,69.9857,234.5983,285.609,145.5364,0.0003171,6527.354,87.471,155.303,143.135
FENGYUN 1C DEB,31626,2025-04-08 07:08:17.931264,15.92893554,0.0014018,101.2266,302.9367,305.7772,54.2185,0.029609,6672.327,90.402,303.546,284.839
COSMOS 2251 DEB,33930,2025-04-08 07:58:16.540032,16.02587727,0.00228,73.9763,192.3262,316.6873,43.2574,0.020208,6645.392,89.855,282.409,252.106
CZ-6A DEB,61343,2025-04-08 12:44:18.339648,15.89684865,0.0019884,89.2588,329.9802,207.7378,152.2846,0.028826,6681.303,90.584,316.453,289.883
OBJECT C,63522,2025-04-08 19:23:01.335840,16.19975563,0.0056083,51.6448,290.3777,77.631,25.1594,0.0031616,6597.755,88.89,256.622,182.618
ELECTRON R/B,63206,2025-04-09 00:26:24.639936,16.23025334,0.0052173,42.0012,313.1202,87.6824,29.0083,0.0018281,6589.488,88.723,245.732,176.973
EIVE,56937,2025-04-09 08:19:06.430944,16.29514234,0.0012765,97.5157,237.0989,277.1321,82.8521,0.0018278,6571.983,88.37,202.237,185.458
TBA - TO BE ASSIGNED,85433,2025-04-09 10:19:13.861056,15.63559069,0.0007682,41.4609,79.0813,201.3775,298.014,0.00094433,6755.523,92.098,382.578,372.198
MH-1,59145,2025-04-09 12:48:08.371008,16.30743853,0.0014277,97.4738,238.8162,274.5372,85.4291,0.0015979,6568.679,88.303,199.922,181.165
STARLINK-2295,48036,2025-04-09 19:02:02.704704,16.45339422,0.0007985,53.0271,335.5745,267.691,136.9803,0.00052837,6529.774,87.52,156.853,146.425
STARLINK-6057,56815,2025-04-09 21:58:41.733984,16.45659849,0.0008813,69.9897,90.563,277.21,130.8923,0.0002352,6528.927,87.503,156.546,145.038
SL-4 R/B,63521,2025-04-09 23:17:51.069408,16.41802781,0.0007095,51.6521,283.9113,81.8811,43.3667,0.0006607,6539.148,87.708,165.653,156.374
PEGASUS DEB,24978,2025-04-10 00:53:18.826080,16.02876605,0.0028109,81.4001,319.2285,262.7507,97.0573,0.0066696,6644.594,89.838,285.136,247.782
COSMOS 2251 DEB,33759,2025-04-10 12:22:21.392832,16.21465048,0.0012003,73.9578,108.7792,246.6229,113.3759,0.0086291,6593.714,88.809,223.494,207.665
LEMUR 2 REMY-COLTON,43884,2025-04-10 15:06:29.909376,16.46601126,0.0005642,97.572,32.5123,160.8574,199.2941,0.00044424,6526.438,87.453,151.986,144.621
CZ-6A DEB,61301,2025-04-10 15:11:11.760000,15.92085286,0.001869,89.256,329.5577,208.2647,151.7626,0.029331,6674.585,90.447,308.925,283.976
STARLINK-1235,45232,2025-04-10 17:34:22.482624,16.46950264,0.000578,53.0145,312.5618,262.6301,144.6566,0.00038649,6525.516,87.434,151.153,143.609
CZ-2C R/B,43031,2025-04-10 20:06:14.209344,16.44204372,0.0024847,35.2081,350.1144,18.4172,63.3675,0.00017469,6532.779,87.58,170.876,138.412
STARLINK-3053,49149,2025-04-10 20:28:54.814944,16.45312138,0.0010188,69.9857,29.7419,247.7807,197.2384,0.00028467,6529.847,87.521,158.364,145.059
DRUMS TARGET-2,58954,2025-04-11 01:47:28.137408,16.32362654,0.0013213,97.341,156.7531,259.7581,100.2225,0.0020747,6564.335,88.216,194.874,177.527
COSMOS 2251 DEB,35893,2025-04-11 06:30:22.631328,15.41136169,0.0023455,73.6193,293.3282,188.4711,171.6103,0.016848,6820.892,93.438,458.755,426.758
FENGYUN 1C DEB,30039,2025-04-11 11:44:51.167904,16.0093056,0.0021892,96.9364,86.9509,156.9758,203.2508,0.019091,6649.978,89.948,286.401,257.284
STARLINK-5047,55409,2025-04-11 12:32:55.504032,16.44347078,0.0010964,69.9897,167.8033,259.1911,231.2457,0.00030314,6532.401,87.573,161.428,147.104
STARLINK-4381,53222,2025-04-11 14:23:19.442976,16.54933179,0.0037034,97.6225,170.0802,234.6705,267.7981,0.0001,6504.514,87.013,150.468,102.29
